{
"type": "FeatureCollection",
"name": "assentamentos_precarios_jacarei",
"crs": { "type": "name", "properties": { "name": "urn:ogc:def:crs:OGC:1.3:CRS84" } },
"features": [
{ "type": "Feature", "properties": { "fid": 1, "nome": "Jd Nova Esperanca", "domicilios": 50, "remocao": 0 }, "geometry": { "type": "MultiPolygon", "coordinates": [ [ [ [ -46.007495517776611, -23.310820649733838 ], [ -46.007390118229253, -23.310484397010509 ], [ -46.006933740384952, -23.310645999921004 ], [ -46.006778561502493, -23.31031790209483 ], [ -46.006256694964129, -23.309316339013421 ], [ -46.005847390218953, -23.309461965341072 ], [ -46.00593509006481, -23.309983448591588 ], [ -46.006014438610123, -23.310240534290685 ], [ -46.006204868806435, -23.310814248164807 ], [ -46.006318137380667, -23.311069157016234 ], [ -46.007495517776611, -23.310820649733838 ] ] ] ] } },
{ "type": "Feature", "properties": { "fid": 2, "nome": "Veraneio Ijal", "domicilios": 85, "remocao": 15 }, "geometry": { "type": "MultiPolygon", "coordinates": [ [ [ [ -46.037407168675244, -23.303531764950097 ], [ -46.037234657752251, -23.304129604527883 ], [ -46.037707575627152, -23.30422478296811 ], [ -46.037826548677501, -23.303623969064123 ], [ -46.037407168675244, -23.303531764950097 ] ] ] ] } },
{ "type": "Feature", "properties": { "fid": 3, "nome": "Nova Jacarei", "domicilios": 55, "remocao": 3 }, "geometry": { "type": "MultiPolygon", "coordinates": [ [ [ [ -46.012829197579848, -23.306575307897418 ], [ -46.012765900494244, -23.306618812499469 ], [ -46.012947117216292, -23.307023132902053 ], [ -46.01311028547763, -23.307284570389772 ], [ -46.013278607193087, -23.307386324484238 ], [ -46.013614605556633, -23.307504624379767 ], [ -46.015041360566485, -23.307983157393416 ], [ -46.016140173427509, -23.30800738141048 ], [ -46.016099238436581, -23.307644271795443 ], [ -46.015879993919057, -23.306981627876244 ], [ -46.015792967339088, -23.306972397321285 ], [ -46.015655391516674, -23.307009528210401 ], [ -46.015454083508779, -23.307172440992549 ], [ -46.015333815732546, -23.307254514046203 ], [ -46.015179183939921, -23.307280001630691 ], [ -46.015007080287887, -23.307238999803641 ], [ -46.013968118886368, -23.306855903215656 ], [ -46.013727683319196, -23.30675363672777 ], [ -46.013599723749508, -23.306660437166205 ], [ -46.013520616520694, -23.306576716148118 ], [ -46.012829197579848, -23.306575307897418 ] ] ] ] } },
{ "type": "Feature", "properties": { "fid": 4, "nome": "Bandeira Branca 1", "domicilios": 30, "remocao": 0 }, "geometry": { "type": "MultiPolygon", "coordinates": [ [ [ [ -45.990819536379256, -23.321471167878133 ], [ -45.990572633538271, -23.321604168111495 ], [ -45.991484206757391, -23.322748519417406 ], [ -45.991737544102897, -23.322586721723194 ], [ -45.990819536379256, -23.321471167878133 ] ] ] ] } },
{ "type": "Feature", "properties": { "fid": 5, "nome": "Jd Vista Verde", "domicilios": 15, "remocao": 0 }, "geometry": { "type": "MultiPolygon", "coordinates": [ [ [ [ -45.977445819253369, -23.319654587472805 ], [ -45.977890133175713, -23.320146455600071 ], [ -45.97879773462676, -23.319251080188657 ], [ -45.978517394612581, -23.318898895550351 ], [ -45.977898664530485, -23.319314830403982 ], [ -45.977445819253369, -23.319654587472805 ] ] ] ] } },
{ "type": "Feature", "properties": { "fid": 6, "nome": "Maria Amelia 1", "domicilios": 22, "remocao": 5 }, "geometry": { "type": "MultiPolygon", "coordinates": [ [ [ [ -45.957843845820705, -23.315557687384377 ], [ -45.957095009155069, -23.31635961370705 ], [ -45.957555830647578, -23.31670516066518 ], [ -45.958317073358614, -23.315908070874027 ], [ -45.957843845820705, -23.315557687384377 ] ] ] ] } },
{ "type": "Feature", "properties": { "fid": 7, "nome": "Jd Pitoresco", "domicilios": 24, "remocao": 10 }, "geometry": { "type": "MultiPolygon", "coordinates": [ [ [ [ -45.939737042808758, -23.30780334584562 ], [ -45.939006548279963, -23.307615368426124 ], [ -45.938631706251137, -23.308285481244248 ], [ -45.938927191589592, -23.309153474001697 ], [ -45.939737042808758, -23.30780334584562 ] ] ] ] } },
{ "type": "Feature", "properties": { "fid": 8, "nome": "Sandoval Galvao Gomes", "domicilios": 8, "remocao": 0 }, "geometry": { "type": "MultiPolygon", "coordinates": [ [ [ [ -46.035460588999968, -23.306426463686257 ], [ -46.034836010999982, -23.306137736686239 ], [ -46.034683331999986, -23.306099483686239 ], [ -46.034555755668187, -23.306139595406449 ], [ -46.03446312799997, -23.306192915686204 ], [ -46.034341206999969, -23.306286364686223 ], [ -46.034746194507584, -23.306469474879485 ], [ -46.035387229999969, -23.306716653686227 ], [ -46.035460588999968, -23.306426463686257 ] ] ] ] } },
{ "type": "Feature", "properties": { "fid": 9, "nome": "Conjunto 22 de Abril", "domicilios": 320, "remocao": 2 }, "geometry": { "type": "MultiPolygon", "coordinates": [ [ [ [ -46.068231378422944, -23.268547981059449 ], [ -46.070437585345452, -23.265937674628638 ], [ -46.070209091962234, -23.265501919963526 ], [ -46.069919364854272, -23.265174116220791 ], [ -46.069607965355232, -23.265047192400779 ], [ -46.069217801712739, -23.264935169073375 ], [ -46.068674336129192, -23.264914923138907 ], [ -46.06819612505813, -23.264936137549814 ], [ -46.067690527551356, -23.264784234101864 ], [ -46.066586228428726, -23.264356407996083 ], [ -46.065670226281, -23.264859544203794 ], [ -46.065107212876157, -23.265329030449223 ], [ -46.064383759177666, -23.266753117608577 ], [ -46.064820391990509, -23.267015424929461 ], [ -46.065131751557999, -23.267149482914849 ], [ -46.066997445382448, -23.267747811060943 ], [ -46.068231378422944, -23.268547981059449 ] ] ] ] } },
{ "type": "Feature", "properties": { "fid": 10, "nome": "Mississipi", "domicilios": 110, "remocao": 23 }, "geometry": { "type": "MultiPolygon", "coordinates": [ [ [ [ -45.981534825785552, -23.29558717201677 ], [ -45.981533546623595, -23.295576222592508 ], [ -45.981532383320413, -23.295570473907116 ], [ -45.981530831061086, -23.295565016658433 ], [ -45.98152884898446, -23.295559426974101 ], [ -45.981526489279311, -23.295554043674635 ], [ -45.981523744828394, -23.295548896436522 ], [ -45.981520626526518, -23.295543892072672 ], [ -45.981418588298375, -23.295454157523352 ], [ -45.9812706363535, -23.295563939567074 ], [ -45.981320132343591, -23.295664905922116 ], [ -45.981342802350305, -23.295815282472233 ], [ -45.981333662148998, -23.295875989727527 ], [ -45.981333621184881, -23.295935754642759 ], [ -45.981329933747546, -23.29596319405869 ], [ -45.981330601060804, -23.296058867765957 ], [ -45.981320661579822, -23.296134534207741 ], [ -45.981304256774251, -23.296244943800204 ], [ -45.981254974311092, -23.296386916536331 ], [ -45.981230312964058, -23.296422486932013 ], [ -45.981206979478983, -23.296446934652792 ], [ -45.981183885216382, -23.296496265807047 ], [ -45.981154736446086, -23.296573478175937 ], [ -45.981125574659771, -23.296648919816398 ], [ -45.981054667089261, -23.296783059160795 ], [ -45.98102342591018, -23.29683637873363 ], [ -45.980994108209181, -23.296890571670787 ], [ -45.980942060303001, -23.296993315515287 ], [ -45.980869793367553, -23.297061789206623 ], [ -45.98062919331862, -23.296930483533149 ], [ -45.980415063724841, -23.297141220022379 ], [ -45.980145404783819, -23.297361157328773 ], [ -45.98042534124167, -23.297592225238009 ], [ -45.980368403098105, -23.297650063014622 ], [ -45.980155797356694, -23.297471324973394 ], [ -45.98010243209729, -23.297514157821517 ], [ -45.980286986537443, -23.297714876015931 ], [ -45.980101049575936, -23.297848848563621 ], [ -45.979867439429114, -23.298017649482034 ], [ -45.980014326807122, -23.298179645629755 ], [ -45.979914337645155, -23.298269696109433 ], [ -45.979837079309249, -23.298191378050323 ], [ -45.979757963412673, -23.298252079731181 ], [ -45.979487201146455, -23.297948800308706 ], [ -45.979434857922236, -23.297980508733467 ], [ -45.979796959430466, -23.298406781502148 ], [ -45.979740844564297, -23.298466896761578 ], [ -45.979413288804032, -23.298111240310131 ], [ -45.979251358647311, -23.298251259761599 ], [ -45.97943949420668, -23.298417425885482 ], [ -45.979382475741623, -23.298485072585439 ], [ -45.979220440409776, -23.298348847101899 ], [ -45.978945757995717, -23.298677778587191 ], [ -45.979235008209514, -23.298898591049706 ], [ -45.979198960265826, -23.298950169490087 ], [ -45.979110283913002, -23.298883432607997 ], [ -45.978994387469285, -23.299026705992116 ], [ -45.978838232512828, -23.298908151467877 ], [ -45.978395384811591, -23.299896792003121 ], [ -45.978758756277827, -23.299999434140332 ], [ -45.978741778816087, -23.300045128214613 ], [ -45.978577863943684, -23.300005904743923 ], [ -45.978528208150905, -23.30016293084558 ], [ -45.978712679826273, -23.300221101529782 ], [ -45.978658030686496, -23.300350711359417 ], [ -45.978401526595462, -23.300273511229978 ], [ -45.978383009954499, -23.300363052407864 ], [ -45.978373230152044, -23.300467590911548 ], [ -45.978338120307392, -23.300647546658034 ], [ -45.978484996072886, -23.300676733878262 ], [ -45.978464865184293, -23.300746823310874 ], [ -45.978336798919635, -23.300729011921248 ], [ -45.978323055432533, -23.300815867101878 ], [ -45.978481427637938, -23.300826669313427 ], [ -45.978470811707922, -23.300881843814558 ], [ -45.978444131635641, -23.300990170007466 ], [ -45.978379880705774, -23.30098373899531 ], [ -45.978374025672494, -23.301100648635924 ], [ -45.978412911155736, -23.301109260026497 ], [ -45.978406051853824, -23.301547576963134 ], [ -45.978622027676252, -23.301522323298766 ], [ -45.978602889221662, -23.30119927092144 ], [ -45.978638588219454, -23.301099883064406 ], [ -45.978695167681117, -23.300972032000963 ], [ -45.978761306473949, -23.30084057964018 ], [ -45.979001974222435, -23.300230897218395 ], [ -45.9790988736221, -23.30001835709087 ], [ -45.979145651744133, -23.299911712106621 ], [ -45.979310643010216, -23.29954075865891 ], [ -45.979423940125869, -23.299288811599862 ], [ -45.97944285302728, -23.299250930485336 ], [ -45.979549982925626, -23.299068382450006 ], [ -45.979600436198169, -23.299007954773646 ], [ -45.979663330824565, -23.298937430606752 ], [ -45.979849833061607, -23.298769799966795 ], [ -45.979982471265906, -23.298652599487315 ], [ -45.980063669642696, -23.298575024723906 ], [ -45.980114246696438, -23.29853155092669 ], [ -45.980577626498068, -23.298119041348173 ], [ -45.980695313603832, -23.298011181855415 ], [ -45.980904209677348, -23.297825684488398 ], [ -45.980913302338628, -23.297814067517585 ], [ -45.980921605886934, -23.297808620867222 ], [ -45.980929869885806, -23.297797779751882 ], [ -45.980938968192866, -23.297786933417466 ], [ -45.980945569220076, -23.29777687337652 ], [ -45.98096206048384, -23.297750181997483 ], [ -45.980994532609941, -23.297684086320558 ], [ -45.981094519532824, -23.297495031247784 ], [ -45.981173494142837, -23.297341943880454 ], [ -45.981255794497194, -23.297187294320025 ], [ -45.981298568001364, -23.29710379398178 ], [ -45.981394030415011, -23.296923629780128 ], [ -45.981519137429977, -23.296690103546201 ], [ -45.981533996591345, -23.296668431700326 ], [ -45.981542113493674, -23.296637553973369 ], [ -45.981553590212833, -23.29660973791027 ], [ -45.981566577242752, -23.296560333545401 ], [ -45.981566475486083, -23.296546462065585 ], [ -45.981563280544833, -23.296338400308787 ], [ -45.981558846656043, -23.296188917462782 ], [ -45.981549350464014, -23.296031759564812 ], [ -45.981546551292396, -23.295877642441745 ], [ -45.981538780271975, -23.295728180471322 ], [ -45.981534934339827, -23.29565884394971 ], [ -45.981534825785552, -23.29558717201677 ] ] ] ] } },
{ "type": "Feature", "properties": { "fid": 11, "nome": "Lagoa Azul", "domicilios": 284, "remocao": 0 }, "geometry": { "type": "MultiPolygon", "coordinates": [ [ [ [ -45.971665963517779, -23.254415496104805 ], [ -45.972443842172133, -23.253675303553621 ], [ -45.97313471791999, -23.252954080624953 ], [ -45.973349867746791, -23.252663921538986 ], [ -45.97374601849075, -23.252065134352826 ], [ -45.973505757727281, -23.251919568563299 ], [ -45.973483107464951, -23.251905263134464 ], [ -45.973399570711841, -23.251794576090333 ], [ -45.973355166432157, -23.25174969544906 ], [ -45.97330501950124, -23.251705735790775 ], [ -45.973259708506667, -23.251667944008702 ], [ -45.9731556655953, -23.251591558152434 ], [ -45.973071627440909, -23.25172998124776 ], [ -45.972730107026571, -23.251543947446471 ], [ -45.972688480629358, -23.251551731225256 ], [ -45.972654538962594, -23.251562123628631 ], [ -45.972622037776922, -23.251572949808697 ], [ -45.972576947956718, -23.251596653310155 ], [ -45.972563387602293, -23.251611256768761 ], [ -45.972551168381827, -23.251627499391091 ], [ -45.972540290295314, -23.251643443983667 ], [ -45.972529859253456, -23.251661474784534 ], [ -45.972521067375325, -23.251678313466467 ], [ -45.972437171995743, -23.251792458867438 ], [ -45.972330179309182, -23.251949520554934 ], [ -45.972252691569629, -23.252056811271256 ], [ -45.972041388464504, -23.252319673526216 ], [ -45.971939760313717, -23.252432626808137 ], [ -45.971827999150868, -23.252550050536538 ], [ -45.971696269993615, -23.252686548170082 ], [ -45.97140867126793, -23.252987558235308 ], [ -45.971132248658535, -23.253304214863327 ], [ -45.971104382875268, -23.253325673006586 ], [ -45.971075324972929, -23.253345044941486 ], [ -45.971044925936653, -23.253363224757294 ], [ -45.971012887736642, -23.253378871320091 ], [ -45.970980253477094, -23.253392729704277 ], [ -45.970946427098482, -23.253404501880105 ], [ -45.970912302690095, -23.253414187847543 ], [ -45.970877135177524, -23.253421638591725 ], [ -45.970841669635192, -23.253427003127559 ], [ -45.970805608033317, -23.25343043046988 ], [ -45.970769695446322, -23.253431473574068 ], [ -45.970733633844446, -23.253430132440119 ], [ -45.970710329343959, -23.253419787117693 ], [ -45.970664649923172, -23.25346345449114 ], [ -45.971665963517779, -23.254415496104805 ] ] ] ] } },
{ "type": "Feature", "properties": { "fid": 12, "nome": "Jd Panorama", "domicilios": 50, "remocao": 0 }, "geometry": { "type": "MultiPolygon", "coordinates": [ [ [ [ -45.981576700266615, -23.32116628910147 ], [ -45.981583627879644, -23.321082665799569 ], [ -45.980716460378822, -23.321230007197389 ], [ -45.980702834034595, -23.3214285947879 ], [ -45.9807129891607, -23.321527782383214 ], [ -45.980730768934912, -23.321602148253788 ], [ -45.980828206834325, -23.32162064912076 ], [ -45.981023082633136, -23.321619415729625 ], [ -45.981159989048763, -23.321619415729629 ], [ -45.981253726774774, -23.321621882511899 ], [ -45.981333897198354, -23.321615715556234 ], [ -45.981440380095478, -23.321602454978187 ], [ -45.981492774000458, -23.32154814812154 ], [ -45.981469395158648, -23.321445560924118 ], [ -45.981480323743035, -23.321393255032017 ], [ -45.981479914558065, -23.321337537657833 ], [ -45.981511812306145, -23.321316442885756 ], [ -45.981517059199888, -23.32126069008331 ], [ -45.981577314100022, -23.321249865161999 ], [ -45.981576700266615, -23.32116628910147 ] ] ] ] } },
{ "type": "Feature", "properties": { "fid": 13, "nome": "Bela Vista I e II", "domicilios": 290, "remocao": 2 }, "geometry": { "type": "MultiPolygon", "coordinates": [ [ [ [ -46.029082173216096, -23.2977024556183 ], [ -46.029119493288725, -23.297591533423486 ], [ -46.028568759759878, -23.295739317797363 ], [ -46.028223930365705, -23.295871298366531 ], [ -46.027979743150489, -23.295982799888396 ], [ -46.027853462734413, -23.296039689720683 ], [ -46.027792253495349, -23.296072729499905 ], [ -46.027148537894895, -23.296363513735191 ], [ -46.027145718036728, -23.296365202411053 ], [ -46.026990627320707, -23.296435948133528 ], [ -46.026486231477037, -23.296666149157911 ], [ -46.026227985031511, -23.296786297615796 ], [ -46.02598513547715, -23.296899262678242 ], [ -46.025913605806814, -23.296934554450189 ], [ -46.025778941934171, -23.297003258577796 ], [ -46.025558824856439, -23.297133291354044 ], [ -46.025478121854974, -23.297184522722013 ], [ -46.025401786518863, -23.297235237049751 ], [ -46.025266350296768, -23.297340631227879 ], [ -46.025098051159915, -23.297484795161559 ], [ -46.024843446977243, -23.297778867368272 ], [ -46.024751791068894, -23.297906900761923 ], [ -46.024641141736858, -23.298091077628492 ], [ -46.024533840688427, -23.29831652601943 ], [ -46.024497983557197, -23.298435345029617 ], [ -46.02455749867088, -23.299214963542163 ], [ -46.02459075881557, -23.299376715107652 ], [ -46.027090508574126, -23.299183701382805 ], [ -46.027315327905562, -23.299048044685943 ], [ -46.027458990459373, -23.29883848161619 ], [ -46.0278090311661, -23.29843951240894 ], [ -46.028028298567911, -23.298271569432757 ], [ -46.028178502655415, -23.298223571305503 ], [ -46.02834980761331, -23.29816172243379 ], [ -46.028459719364029, -23.298113988262745 ], [ -46.029082173216096, -23.2977024556183 ] ] ], [ [ [ -46.027730206031521, -23.295770060958255 ], [ -46.027371659347367, -23.29529052293541 ], [ -46.026984317159354, -23.295353048420157 ], [ -46.025519469480017, -23.295074880864608 ], [ -46.024945435456729, -23.294210397630604 ], [ -46.024690517756483, -23.294221466630557 ], [ -46.02428572286837, -23.294325385001773 ], [ -46.024727624687031, -23.295312030033287 ], [ -46.02500856370294, -23.295198634455623 ], [ -46.025233717625227, -23.295560563029625 ], [ -46.024450969060432, -23.295984966340775 ], [ -46.025116915045757, -23.297080274183163 ], [ -46.025841971129978, -23.296706300941203 ], [ -46.027730206031521, -23.295770060958255 ] ] ] ] } },
{ "type": "Feature", "properties": { "fid": 14, "nome": "Veraneio Ijal-2", "domicilios": 27, "remocao": 0 }, "geometry": { "type": "MultiPolygon", "coordinates": [ [ [ [ -46.033814767516652, -23.306784476576393 ], [ -46.033799041779737, -23.306776151186249 ], [ -46.033772832218169, -23.306775842838455 ], [ -46.033735830484197, -23.306786943358649 ], [ -46.033664293798509, -23.30682641187488 ], [ -46.033608791197558, -23.306856013262056 ], [ -46.033573022854718, -23.306870813955648 ], [ -46.033439816612422, -23.306917682818685 ], [ -46.033256041333701, -23.306986752722093 ], [ -46.033191904994816, -23.307000320024553 ], [ -46.033151203087449, -23.307008953762463 ], [ -46.0331302354382, -23.307015120718141 ], [ -46.033115434744609, -23.307027454629466 ], [ -46.033106492658902, -23.307039480192998 ], [ -46.033101867442163, -23.307052122452099 ], [ -46.033099400659893, -23.307070623319095 ], [ -46.03310125074659, -23.307100841401819 ], [ -46.033105875963358, -23.307124892528925 ], [ -46.033112042918994, -23.307137534788019 ], [ -46.0331302354382, -23.307189028867793 ], [ -46.033154903260844, -23.307255631988941 ], [ -46.033173404127822, -23.307306201025359 ], [ -46.033179879431266, -23.307324701892352 ], [ -46.033216881165231, -23.307444032484419 ], [ -46.033239082205611, -23.30752173612575 ], [ -46.03326251663713, -23.30759820637595 ], [ -46.033287184459773, -23.30766604288824 ], [ -46.033326652976022, -23.307796782348284 ], [ -46.033368588274527, -23.307907787550185 ], [ -46.033403739921788, -23.307984874495951 ], [ -46.033449992089281, -23.308103896740246 ], [ -46.033474659911946, -23.308170499861394 ], [ -46.033491927387786, -23.308209968377625 ], [ -46.03351166164591, -23.308274104716514 ], [ -46.033536329468546, -23.308348108184443 ], [ -46.033548663379868, -23.30840607756766 ], [ -46.033562230682328, -23.308480697731181 ], [ -46.033569631029117, -23.308524483116365 ], [ -46.033569631029117, -23.308577518935067 ], [ -46.033572097811373, -23.308625621189215 ], [ -46.033563464073445, -23.308684823963571 ], [ -46.033537562859664, -23.308800762730016 ], [ -46.033507961472488, -23.308880933153606 ], [ -46.033494394170042, -23.308940135927966 ], [ -46.033479593476457, -23.309017839569304 ], [ -46.033449992089281, -23.309125144597822 ], [ -46.033408056790783, -23.30921394875935 ], [ -46.033346387234161, -23.309342221437113 ], [ -46.03330445193567, -23.309433492380904 ], [ -46.033262516637166, -23.309524763324706 ], [ -46.033220581338661, -23.309613567486231 ], [ -46.033208247427346, -23.309675237042846 ], [ -46.033215647774135, -23.309739373381742 ], [ -46.033229215076588, -23.309801042938357 ], [ -46.033245249161311, -23.309854078757063 ], [ -46.033260049854896, -23.309914514922536 ], [ -46.033284717677546, -23.309998385519528 ], [ -46.033305685326795, -23.310081022725399 ], [ -46.033335286713978, -23.310201895056373 ], [ -46.033369821665687, -23.310320300605071 ], [ -46.033406823399659, -23.310478174670006 ], [ -46.033436424786835, -23.310606447347777 ], [ -46.03347836008534, -23.310705118638378 ], [ -46.033543729815349, -23.310816740535856 ], [ -46.03360416598084, -23.310885193743701 ], [ -46.033641167714805, -23.310922195477666 ], [ -46.033668302319761, -23.310939462953531 ], [ -46.033700370489164, -23.310954263647112 ], [ -46.033731821963045, -23.310949330082586 ], [ -46.033765873565542, -23.310934838112058 ], [ -46.033786707868479, -23.310923428868815 ], [ -46.033811375691066, -23.310908011479672 ], [ -46.033933481413179, -23.310814890449169 ], [ -46.033969441431665, -23.310780580507995 ], [ -46.0339914507964, -23.310755070979241 ], [ -46.034019908106984, -23.310716674237369 ], [ -46.034035852877167, -23.310676750642322 ], [ -46.034060520699811, -23.310584246307414 ], [ -46.034071621220001, -23.310499142319276 ], [ -46.034083955131322, -23.31033633468979 ], [ -46.034091355478118, -23.310126658197291 ], [ -46.034106156171703, -23.309961383785563 ], [ -46.03411478990963, -23.309699904865489 ], [ -46.034085188522447, -23.309481594635074 ], [ -46.03402845253035, -23.309275618315976 ], [ -46.033986517231845, -23.309079509125926 ], [ -46.033975416711662, -23.30896850392401 ], [ -46.033985283840721, -23.308861198895499 ], [ -46.033991450796378, -23.308702091439422 ], [ -46.03399021740524, -23.308582452499589 ], [ -46.033985283840714, -23.308424578434636 ], [ -46.033987750622977, -23.308237102982524 ], [ -46.033968016364867, -23.307970690497953 ], [ -46.033924847675252, -23.307849818166961 ], [ -46.033868111683155, -23.307761014005422 ], [ -46.033811375691073, -23.307670976452762 ], [ -46.033782969155055, -23.307582376703824 ], [ -46.033763273436918, -23.30749213473857 ], [ -46.033746005961056, -23.307294792157403 ], [ -46.033785474477284, -23.307091282620561 ], [ -46.03381507586446, -23.306922308035436 ], [ -46.033822476211242, -23.306851388045327 ], [ -46.033824326297939, -23.30682487013598 ], [ -46.033822476211256, -23.306796502139935 ], [ -46.033814767516652, -23.306784476576393 ] ] ], [ [ [ -46.037603745075273, -23.309937949354044 ], [ -46.037582777426024, -23.309946583091964 ], [ -46.037571676905834, -23.309962617176677 ], [ -46.037555642821111, -23.309993451954991 ], [ -46.037514324218179, -23.310066222031793 ], [ -46.037483489439857, -23.310182160798245 ], [ -46.037451421270411, -23.310320300605067 ], [ -46.037437853967958, -23.31046707414982 ], [ -46.03744155414136, -23.310567903874908 ], [ -46.037442787532491, -23.310580546134002 ], [ -46.037460055008346, -23.310679217424596 ], [ -46.037469922137412, -23.310772955150654 ], [ -46.037497056742318, -23.310908628175216 ], [ -46.037519257782698, -23.310965364167295 ], [ -46.037546392387611, -23.311031967288454 ], [ -46.037571060210261, -23.311071435804703 ], [ -46.037622862637818, -23.311083769716014 ], [ -46.037701799670295, -23.31108376971601 ], [ -46.037758535662384, -23.311093636845076 ], [ -46.037825138783532, -23.311128171796785 ], [ -46.037859673735241, -23.311150372837158 ], [ -46.037921343291863, -23.311182441006601 ], [ -46.038039748840568, -23.311237943607566 ], [ -46.038159387780404, -23.311277412123808 ], [ -46.038261759244392, -23.311286045861721 ], [ -46.038377698010841, -23.311288512643998 ], [ -46.038436900785193, -23.311256444474534 ], [ -46.038464035390106, -23.311189841353386 ], [ -46.038468968954639, -23.311093636845065 ], [ -46.038488703212749, -23.310957963820506 ], [ -46.038498570341815, -23.310846958618615 ], [ -46.038502270515217, -23.310758154457073 ], [ -46.038496103559552, -23.310650849428541 ], [ -46.038449234696522, -23.310536144053241 ], [ -46.038397432268958, -23.310472007714353 ], [ -46.038355496970453, -23.310405404593205 ], [ -46.038325895583277, -23.310321533996198 ], [ -46.038301227760599, -23.310268498177503 ], [ -46.038274093155692, -23.310237663399199 ], [ -46.038192689340953, -23.31018956114502 ], [ -46.037947244505609, -23.310063755249526 ], [ -46.037603745075273, -23.309937949354044 ] ] ] ] } },
{ "type": "Feature", "properties": { "fid": 15, "nome": "Lagoa Azul 2", "domicilios": 414, "remocao": 30 }, "geometry": { "type": "MultiPolygon", "coordinates": [ [ [ [ -45.971665963517779, -23.254415496104805 ], [ -45.972212139913246, -23.254940704731972 ], [ -45.972294843217071, -23.255080308601698 ], [ -45.972402061318988, -23.255230828230474 ], [ -45.973072839160601, -23.255647326912097 ], [ -45.975534244946232, -23.253339649807447 ], [ -45.975300841761673, -23.253132143132909 ], [ -45.975214939131313, -23.253178717798406 ], [ -45.97504576894692, -23.25310716471121 ], [ -45.974890490002572, -23.253101045415484 ], [ -45.974781719304119, -23.253165469964046 ], [ -45.974749565486057, -23.253224106476889 ], [ -45.974713488753189, -23.253270371615518 ], [ -45.97452444816529, -23.253365398039016 ], [ -45.974412488416618, -23.25335002039057 ], [ -45.974294237148897, -23.253405572318396 ], [ -45.974057695338743, -23.253362137626606 ], [ -45.973757015566711, -23.253209898297698 ], [ -45.973947536803671, -23.252929592928755 ], [ -45.973632941147507, -23.252757118094333 ], [ -45.973989053960693, -23.252181165323559 ], [ -45.97374601849075, -23.252065134352826 ], [ -45.973349867746791, -23.252663921538986 ], [ -45.973193789445851, -23.252866565031166 ], [ -45.97313471791999, -23.252954080624953 ], [ -45.972443842172133, -23.253675303553621 ], [ -45.971665963517779, -23.254415496104805 ] ] ] ] } },
{ "type": "Feature", "properties": { "fid": 16, "nome": "Av. Jose T. de Siqueira", "domicilios": 12, "remocao": 0 }, "geometry": { "type": "MultiPolygon", "coordinates": [ [ [ [ -45.94664632456255, -23.310001617413779 ], [ -45.946387017664435, -23.310070474075847 ], [ -45.947095549924882, -23.312113255489411 ], [ -45.947359088867024, -23.31196468539526 ], [ -45.94664632456255, -23.310001617413779 ] ] ] ] } },
{ "type": "Feature", "properties": { "fid": 17, "nome": "Est. dos Paturis", "domicilios": 31, "remocao": 100 }, "geometry": { "type": "MultiPolygon", "coordinates": [ [ [ [ -45.98720571090346, -23.324577486808035 ], [ -45.98666732490927, -23.324321540169063 ], [ -45.986440372945502, -23.324237813429658 ], [ -45.986196713711664, -23.324161932944996 ], [ -45.985932213138, -23.324101666084321 ], [ -45.985659844350678, -23.324111121166453 ], [ -45.985450799735055, -23.324182108982768 ], [ -45.985266787770527, -23.324237456247261 ], [ -45.985120096733034, -23.324238378615675 ], [ -45.984976912136716, -23.324146381592872 ], [ -45.984762477891643, -23.324054832255868 ], [ -45.984573590174115, -23.324017312134025 ], [ -45.984410020627266, -23.32400285702094 ], [ -45.984242488012235, -23.324019392373312 ], [ -45.983761985516892, -23.324223687358923 ], [ -45.983219240343836, -23.324513527312401 ], [ -45.983054258084664, -23.324591976905996 ], [ -45.98269664092777, -23.324408425774241 ], [ -45.982326821099193, -23.324275269649853 ], [ -45.981953038345019, -23.324173103222321 ], [ -45.981731048265672, -23.324193847904812 ], [ -45.98110769977832, -23.324352581198564 ], [ -45.980869995721413, -23.324516639719324 ], [ -45.980703512932827, -23.32467638139552 ], [ -45.980611903202657, -23.324758239905407 ], [ -45.980485201735959, -23.324627428343298 ], [ -45.980320865024964, -23.324508464311769 ], [ -45.980073102368792, -23.32444421205728 ], [ -45.97992204938501, -23.324421932522803 ], [ -45.979904271820871, -23.324709090191021 ], [ -45.979900277528863, -23.324739467809078 ], [ -45.980053490342442, -23.324770442965654 ], [ -45.980150634118935, -23.324827529644313 ], [ -45.980301828419449, -23.325019651847409 ], [ -45.98043283671619, -23.325119553557688 ], [ -45.980499479783347, -23.325143949294333 ], [ -45.980582899980824, -23.325142121288472 ], [ -45.980717243594825, -23.325119492913281 ], [ -45.980772530007329, -23.325053655210613 ], [ -45.980880247734632, -23.324959071387589 ], [ -45.980958692024515, -23.32485070404206 ], [ -45.981056801189503, -23.324768141035882 ], [ -45.981154010577171, -23.32471369510661 ], [ -45.981259980915517, -23.324675665370844 ], [ -45.981606433335948, -23.324592596115185 ], [ -45.981810796921174, -23.324545153932064 ], [ -45.982051074360299, -23.324505374608101 ], [ -45.98216716884928, -23.324508500998551 ], [ -45.982332843606962, -23.324538429715943 ], [ -45.98259750010066, -23.324654985678563 ], [ -45.9827473701434, -23.32475559633637 ], [ -45.982869513673904, -23.324877441483551 ], [ -45.982988011590123, -23.324983202575002 ], [ -45.983072952961571, -23.325007214121733 ], [ -45.98313674775401, -23.325009140795792 ], [ -45.983195899903606, -23.324993195333828 ], [ -45.983245579458028, -23.324959528310217 ], [ -45.983266082087091, -23.324906407342848 ], [ -45.983315156937685, -23.324780251529212 ], [ -45.983359668155103, -23.324709513195387 ], [ -45.983386758357589, -23.324677098454799 ], [ -45.983581599148415, -23.324548285348445 ], [ -45.983979745326025, -23.324346233690438 ], [ -45.984201378724961, -23.324251825951755 ], [ -45.98435800665235, -23.324221452459522 ], [ -45.984544369556211, -23.324238918377731 ], [ -45.984794157957893, -23.324344472895515 ], [ -45.984884491206969, -23.324416334920201 ], [ -45.984976605296829, -23.324491442434368 ], [ -45.985055148321855, -23.324529387328706 ], [ -45.985112288580794, -23.324543640509642 ], [ -45.985200838099914, -23.324547375983638 ], [ -45.985285520171246, -23.324525422313567 ], [ -45.985378401987639, -23.324475084757978 ], [ -45.985513360505919, -23.324406720040944 ], [ -45.985662879813397, -23.324372942895192 ], [ -45.985804460417754, -23.324367793555165 ], [ -45.985979924358595, -23.324373044809338 ], [ -45.98619250808202, -23.324419689422651 ], [ -45.986377660259855, -23.324483378438288 ], [ -45.986558945511547, -23.324593480209643 ], [ -45.986692456410601, -23.324712177265631 ], [ -45.986820334412606, -23.324798882700968 ], [ -45.986962573950663, -23.324863764307391 ], [ -45.98720571090346, -23.324577486808035 ] ] ] ] } },
{ "type": "Feature", "properties": { "fid": 18, "nome": "Est. do Bom Jesus", "domicilios": 200, "remocao": 5 }, "geometry": { "type": "MultiPolygon", "coordinates": [ [ [ [ -45.995357862486991, -23.33273813431596 ], [ -45.994942090096501, -23.333171078138662 ], [ -45.994223777957771, -23.334565710594969 ], [ -45.994025005686424, -23.334912276548852 ], [ -45.993919691806859, -23.335190959145468 ], [ -45.993946286526196, -23.336703046137607 ], [ -45.993649491720213, -23.337495608244648 ], [ -45.997106884994054, -23.337122948270657 ], [ -45.998263944309528, -23.33722098860925 ], [ -45.998526579903178, -23.336997007896496 ], [ -45.997570474405769, -23.335674744882517 ], [ -45.995631764891989, -23.333081697875127 ], [ -45.995357862486991, -23.33273813431596 ] ] ] ] } },
{ "type": "Feature", "properties": { "fid": 19, "nome": "Lagoa Azul (Fase 2)", "domicilios": 10, "remocao": 100 }, "geometry": { "type": "MultiPolygon", "coordinates": [ [ [ [ -45.97374601849075, -23.252065134352826 ], [ -45.973861216492431, -23.251896192463587 ], [ -45.973709842680705, -23.25176786136155 ], [ -45.973911698235646, -23.251590413485964 ], [ -45.97382577049391, -23.251501520029397 ], [ -45.973681013849976, -23.251624603897238 ], [ -45.973403196036223, -23.251355738440683 ], [ -45.9731556655953, -23.251591558152434 ], [ -45.973259708506667, -23.251667944008702 ], [ -45.97330501950124, -23.251705735790775 ], [ -45.973355166432157, -23.25174969544906 ], [ -45.973399570711841, -23.251794576090333 ], [ -45.973483107464951, -23.251905263134464 ], [ -45.97374601849075, -23.252065134352826 ] ] ] ] } },
{ "type": "Feature", "properties": { "fid": 20, "nome": "Bairro do Lago", "domicilios": 149, "remocao": 0 }, "geometry": { "type": "MultiPolygon", "coordinates": [ [ [ [ -45.987500621839004, -23.322757106786987 ], [ -45.987618550608964, -23.322124056142066 ], [ -45.98744954736339, -23.3220879345259 ], [ -45.987291512072964, -23.321979140949722 ], [ -45.987084653548713, -23.321750240580272 ], [ -45.986921102236678, -23.321673355700074 ], [ -45.986730355084759, -23.321618951433695 ], [ -45.985681634099798, -23.321305748304233 ], [ -45.985442804473628, -23.321161159635814 ], [ -45.985203981882606, -23.321017455940989 ], [ -45.985005867919945, -23.32093370310665 ], [ -45.984605242755947, -23.320807839890179 ], [ -45.984202314607217, -23.320653653632228 ], [ -45.984096873031632, -23.320786240320583 ], [ -45.983999739932329, -23.320875390211228 ], [ -45.983794138657409, -23.32107678136218 ], [ -45.983516866559114, -23.320919150042432 ], [ -45.983168110104451, -23.321274612908201 ], [ -45.982821538719918, -23.321044125497686 ], [ -45.982647080622264, -23.321279651931036 ], [ -45.983085765209552, -23.321549603306178 ], [ -45.982986204163041, -23.321699860373197 ], [ -45.982824559444246, -23.321621188388967 ], [ -45.98268463399689, -23.321888571144051 ], [ -45.982412398908714, -23.322416205356451 ], [ -45.982178760948337, -23.322325588495598 ], [ -45.981994532104437, -23.322565800986766 ], [ -45.981882952939756, -23.323100699854663 ], [ -45.981465487570581, -23.32337305827301 ], [ -45.981406685673463, -23.323460195722468 ], [ -45.981409357322747, -23.323562885309109 ], [ -45.981436838068127, -23.323649482311442 ], [ -45.981494672041819, -23.323691619209963 ], [ -45.981600271852628, -23.323710436469597 ], [ -45.981722685954509, -23.323668941158829 ], [ -45.982575292604729, -23.323426793291123 ], [ -45.982872249551626, -23.323382693847801 ], [ -45.983091173827873, -23.323327450815693 ], [ -45.983341491807039, -23.323209007398543 ], [ -45.983545819399289, -23.323090505829871 ], [ -45.983845021513133, -23.323104911064107 ], [ -45.983848242553421, -23.32328197061981 ], [ -45.983892981299952, -23.323368458787048 ], [ -45.983989111527094, -23.323403271076501 ], [ -45.98413870703375, -23.323407643942687 ], [ -45.984230546105792, -23.323380505116994 ], [ -45.984730427687396, -23.323208138148242 ], [ -45.984859461761879, -23.323118016892984 ], [ -45.984983954169046, -23.323070727396395 ], [ -45.98514114764675, -23.323093225746785 ], [ -45.985219995393869, -23.323124604342418 ], [ -45.98523244135378, -23.323512330686842 ], [ -45.986557907303954, -23.323481387466352 ], [ -45.986540343351692, -23.323147285679489 ], [ -45.987395732194081, -23.323173771979949 ], [ -45.987500621839004, -23.322757106786987 ] ] ] ] } },
{ "type": "Feature", "properties": { "fid": 21, "nome": "Rio Comprido - APP", "domicilios": 108, "remocao": 10 }, "geometry": { "type": "MultiPolygon", "coordinates": [ [ [ [ -45.927030146089791, -23.261555711526125 ], [ -45.927247559255484, -23.261399479934564 ], [ -45.926974524256927, -23.2610667957719 ], [ -45.927314415918509, -23.260812939827307 ], [ -45.927540975173827, -23.260593789315791 ], [ -45.927728496308823, -23.260411171202563 ], [ -45.927632033113078, -23.260319657886551 ], [ -45.928055530076598, -23.259755801714519 ], [ -45.927870356192017, -23.259585125403138 ], [ -45.929297601242816, -23.258127917669192 ], [ -45.930339946737853, -23.257516612240487 ], [ -45.93071982547459, -23.258272012939404 ], [ -45.930917819092244, -23.258218599752535 ], [ -45.931437781153114, -23.25810786575213 ], [ -45.931434304408043, -23.258076526725024 ], [ -45.931804425733937, -23.258108862032945 ], [ -45.932249163065542, -23.258260284551817 ], [ -45.932373091376355, -23.258272082780305 ], [ -45.932714062076172, -23.258141534396902 ], [ -45.9328243707917, -23.258156816610597 ], [ -45.933130851164876, -23.258270099602161 ], [ -45.933200060362473, -23.258300677835049 ], [ -45.933164047745002, -23.258358443834677 ], [ -45.933232628597317, -23.258386707701455 ], [ -45.933617217886891, -23.258619603753036 ], [ -45.933672487764824, -23.258575004375384 ], [ -45.933862593820621, -23.258696282490501 ], [ -45.933910082026713, -23.258635127780884 ], [ -45.934464180559814, -23.258940176956621 ], [ -45.935156768405953, -23.258079636325732 ], [ -45.934991795860007, -23.257941704845262 ], [ -45.93446306209345, -23.25741654274605 ], [ -45.934143112771991, -23.257168967406269 ], [ -45.933903430768638, -23.257023640165187 ], [ -45.933612377712016, -23.25696737481109 ], [ -45.933293963364136, -23.256939917216375 ], [ -45.932657642388534, -23.256958372886558 ], [ -45.932180632577953, -23.257005230701992 ], [ -45.931623864695375, -23.257023210555193 ], [ -45.930793861973186, -23.257106823449796 ], [ -45.930384932018079, -23.257171212389508 ], [ -45.930126433375825, -23.257228180091928 ], [ -45.929857174324475, -23.257405878014186 ], [ -45.929555992374006, -23.257569089289106 ], [ -45.929238897920847, -23.257732393545641 ], [ -45.929033075790009, -23.257880364348196 ], [ -45.928669265705324, -23.258190696840678 ], [ -45.928416217950385, -23.258412322639391 ], [ -45.928242622494288, -23.25861880259917 ], [ -45.928052811357645, -23.258781352070809 ], [ -45.927880830999136, -23.259000042381967 ], [ -45.927737337120156, -23.259179449097083 ], [ -45.927611980209647, -23.259459019871276 ], [ -45.927470306177092, -23.259679985611779 ], [ -45.927167187979414, -23.260053313406747 ], [ -45.926882110212453, -23.26024577499696 ], [ -45.926613045149217, -23.260452817386476 ], [ -45.926391203916111, -23.260586203598415 ], [ -45.926221072656084, -23.260685695494402 ], [ -45.927030146089791, -23.261555711526125 ] ] ] ] } },
{ "type": "Feature", "properties": { "fid": 22, "nome": "Rio Comprido", "domicilios": 1008, "remocao": 0 }, "geometry": { "type": "MultiPolygon", "coordinates": [ [ [ [ -45.928202554983947, -23.262720410947079 ], [ -45.928618299455536, -23.262696702530274 ], [ -45.928863568907659, -23.262688168325226 ], [ -45.928995362466253, -23.262691815624017 ], [ -45.929181888216647, -23.262711076376828 ], [ -45.929272604864813, -23.262733560261921 ], [ -45.929364414886429, -23.262775516757198 ], [ -45.929468793078676, -23.262833336266734 ], [ -45.929562175740386, -23.262894762466857 ], [ -45.929697648899605, -23.263014376772595 ], [ -45.929889820369155, -23.262880426416473 ], [ -45.931040346956102, -23.262062567701161 ], [ -45.932053375277633, -23.261387183519265 ], [ -45.932387092855244, -23.261144369261999 ], [ -45.932708475032882, -23.260919335894918 ], [ -45.933190840996382, -23.260830584476764 ], [ -45.934748848209658, -23.263895032790995 ], [ -45.935357290992421, -23.263469951842328 ], [ -45.93524138305667, -23.263339601055161 ], [ -45.935925776414088, -23.262947957773704 ], [ -45.936099326241369, -23.262866859723569 ], [ -45.936453595694964, -23.262645293961317 ], [ -45.93668382706975, -23.262404858775103 ], [ -45.936993026753832, -23.262279709840616 ], [ -45.937089180750817, -23.262266086159844 ], [ -45.937131146538192, -23.262237502432161 ], [ -45.937229833060215, -23.262185636102469 ], [ -45.937323906798369, -23.262158062765415 ], [ -45.937375809550453, -23.262146709038397 ], [ -45.937419602497521, -23.262135355311383 ], [ -45.937496536798612, -23.26213969635597 ], [ -45.937561798197542, -23.262153473280463 ], [ -45.93763477531526, -23.262174287410296 ], [ -45.938038532915762, -23.262081563434389 ], [ -45.938172417829918, -23.262041805265135 ], [ -45.938308305973656, -23.262014430804676 ], [ -45.938423831263869, -23.262089885934177 ], [ -45.938537154948591, -23.262124625103741 ], [ -45.93870176634163, -23.262093536944789 ], [ -45.938825832699557, -23.262020191205746 ], [ -45.939080595489806, -23.261999188525699 ], [ -45.939401481255395, -23.26184143612436 ], [ -45.939766798600125, -23.261460292924301 ], [ -45.940462535366443, -23.260035470426541 ], [ -45.940213208791626, -23.260036963567323 ], [ -45.939963077460611, -23.259923479727895 ], [ -45.939712140506821, -23.259695018267287 ], [ -45.939419246757112, -23.259409316997278 ], [ -45.939023623948579, -23.259142499155015 ], [ -45.938876647593446, -23.259075814932594 ], [ -45.938520020678688, -23.258964386477572 ], [ -45.93812112196688, -23.258805342311973 ], [ -45.937403600064449, -23.258589498931009 ], [ -45.936921660469714, -23.258503784626487 ], [ -45.936601951067011, -23.258387042138061 ], [ -45.9361554263714, -23.258242952071917 ], [ -45.935964498678409, -23.258244090209534 ], [ -45.935279825688426, -23.258174793926123 ], [ -45.935156768405953, -23.258079636325732 ], [ -45.934464180559814, -23.258940176956621 ], [ -45.933910082026713, -23.258635127780884 ], [ -45.933862593820621, -23.258696282490501 ], [ -45.933672487764824, -23.258575004375384 ], [ -45.933617217886891, -23.258619603753036 ], [ -45.933232628597317, -23.258386707701455 ], [ -45.933164047745002, -23.258358443834677 ], [ -45.933200060362473, -23.258300677835049 ], [ -45.933130851164876, -23.258270099602161 ], [ -45.9328243707917, -23.258156816610597 ], [ -45.932714062076172, -23.258141534396902 ], [ -45.932373091376355, -23.258272082780305 ], [ -45.932249163065542, -23.258260284551817 ], [ -45.931804425733937, -23.258108862032945 ], [ -45.931434304408043, -23.258076526725024 ], [ -45.931437781153114, -23.25810786575213 ], [ -45.930917819092244, -23.258218599752535 ], [ -45.93071982547459, -23.258272012939404 ], [ -45.930339946737853, -23.257516612240487 ], [ -45.929297601242816, -23.258127917669192 ], [ -45.927870356192017, -23.259585125403138 ], [ -45.928055530076598, -23.259755801714519 ], [ -45.927632033113078, -23.260319657886551 ], [ -45.927728496308823, -23.260411171202563 ], [ -45.927540975173827, -23.260593789315791 ], [ -45.927314415918509, -23.260812939827307 ], [ -45.926974524256927, -23.2610667957719 ], [ -45.927247559255484, -23.261399479934564 ], [ -45.927030146089791, -23.261555711526125 ], [ -45.926221072656084, -23.260685695494402 ], [ -45.926058390535644, -23.26077894537173 ], [ -45.92583321330634, -23.260945040428844 ], [ -45.925726480139332, -23.261032827319848 ], [ -45.926289503352358, -23.261430106392929 ], [ -45.926474812396911, -23.261566756607397 ], [ -45.926551855544517, -23.261627580144992 ], [ -45.9266637708537, -23.26170705623413 ], [ -45.926709185761773, -23.261737873493175 ], [ -45.926800015577925, -23.261801129972284 ], [ -45.926828805385725, -23.261816944092065 ], [ -45.926862461076531, -23.261844111938853 ], [ -45.926944775597413, -23.261898143514745 ], [ -45.927055474435818, -23.26198385401646 ], [ -45.927263732244576, -23.262144240406517 ], [ -45.927502243316553, -23.262336294909669 ], [ -45.927621651353732, -23.262419703943589 ], [ -45.927773950379752, -23.262547632009628 ], [ -45.927964779953086, -23.262704108191745 ], [ -45.928202554983947, -23.262720410947079 ] ] ] ] } },
{ "type": "Feature", "properties": { "fid": 23, "nome": "Vila Ita I e II", "domicilios": 190, "remocao": 0 }, "geometry": { "type": "MultiPolygon", "coordinates": [ [ [ [ -45.990842155923453, -23.296459004329456 ], [ -45.991325765377297, -23.297432544726995 ], [ -45.994339852481197, -23.296970762604015 ], [ -45.993918107862392, -23.295682522937359 ], [ -45.993523333528756, -23.295701846952429 ], [ -45.993535594009899, -23.29606212712509 ], [ -45.992266728791108, -23.296094951726531 ], [ -45.992283023409982, -23.296353385516028 ], [ -45.991968501088635, -23.296388509522938 ], [ -45.990842155923453, -23.296459004329456 ] ] ] ] } },
{ "type": "Feature", "properties": { "fid": 24, "nome": "Bairrinho", "domicilios": 149, "remocao": 0 }, "geometry": { "type": "MultiPolygon", "coordinates": [ [ [ [ -45.949563461462759, -23.209577751557219 ], [ -45.949357545223727, -23.209801690811066 ], [ -45.949448292393754, -23.209965207306652 ], [ -45.949630145569841, -23.21032580436664 ], [ -45.949620952282842, -23.210488367271743 ], [ -45.94956666475796, -23.210715627759779 ], [ -45.949478396538993, -23.210804683485946 ], [ -45.949109826045103, -23.211412251567488 ], [ -45.948722902498972, -23.211967086660337 ], [ -45.948402151857891, -23.212543792985528 ], [ -45.948393969199138, -23.212849738596216 ], [ -45.94844122409198, -23.213318161791872 ], [ -45.948639815288757, -23.213766755914651 ], [ -45.949014745967055, -23.214346796895505 ], [ -45.949252378270401, -23.214775976600766 ], [ -45.949567943261194, -23.215060401473004 ], [ -45.950066663770535, -23.215382403714287 ], [ -45.950619276855441, -23.215706261033695 ], [ -45.951111845410466, -23.216000782439377 ], [ -45.951345807520958, -23.216031242109647 ], [ -45.951613452569667, -23.21594816428048 ], [ -45.952041503203262, -23.215789739928471 ], [ -45.952236168611876, -23.215682311239252 ], [ -45.952511217801195, -23.215529696631432 ], [ -45.952951752310433, -23.215280448132667 ], [ -45.953230379709332, -23.214970535143195 ], [ -45.953639894163537, -23.214644065364396 ], [ -45.953663785734364, -23.214635951727324 ], [ -45.953701176258392, -23.214640152045998 ], [ -45.953731917878478, -23.214652361427763 ], [ -45.953747502414799, -23.214688568972104 ], [ -45.95392964959693, -23.214576958881338 ], [ -45.954038003798615, -23.214511412237403 ], [ -45.95409391289661, -23.214475383914728 ], [ -45.954146058328476, -23.214403689294027 ], [ -45.954219195502255, -23.214322133884089 ], [ -45.954268084298576, -23.214273692196365 ], [ -45.954336405953001, -23.214249371344426 ], [ -45.954405814453466, -23.214243194898501 ], [ -45.954464477334085, -23.214275156538712 ], [ -45.954509423359632, -23.214331550360516 ], [ -45.954520860973155, -23.214390803815736 ], [ -45.954501651321614, -23.214451128713748 ], [ -45.954462110487036, -23.214548764490953 ], [ -45.954452959002786, -23.214609028333182 ], [ -45.95453160952016, -23.214622717593787 ], [ -45.954907376670754, -23.214007606776526 ], [ -45.954816734017434, -23.213938904479633 ], [ -45.955640305106961, -23.212408587414394 ], [ -45.954931156513581, -23.211957954530511 ], [ -45.954349380106287, -23.211940516764439 ], [ -45.954288278644654, -23.21030601875761 ], [ -45.952764894219719, -23.2099982755519 ], [ -45.952402181241801, -23.211263076953102 ], [ -45.952144241737486, -23.211217906852927 ], [ -45.951500164694373, -23.211008393376062 ], [ -45.9512443141614, -23.210868888501778 ], [ -45.950856279102332, -23.210533934213345 ], [ -45.950733536959483, -23.210463901910927 ], [ -45.950547316666075, -23.210410131653035 ], [ -45.950360946216783, -23.210335112062015 ], [ -45.950249028814063, -23.210222454888097 ], [ -45.950225287960613, -23.210116348245361 ], [ -45.950174788739616, -23.210019257432652 ], [ -45.950007351536627, -23.209912247985834 ], [ -45.949563461462759, -23.209577751557219 ] ] ] ] } },
{ "type": "Feature", "properties": { "fid": 25, "nome": "Jd  Paraiba", "domicilios": 30, "remocao": 50 }, "geometry": { "type": "MultiPolygon", "coordinates": [ [ [ [ -45.978260082541645, -23.295382543766163 ], [ -45.978322250976291, -23.295365369991217 ], [ -45.978404758796849, -23.295348153208398 ], [ -45.978611681443049, -23.29530370506162 ], [ -45.978668108478132, -23.295291631947098 ], [ -45.978823661598987, -23.295257732462797 ], [ -45.978994052489526, -23.295221492931635 ], [ -45.979100339448699, -23.295199334321076 ], [ -45.979296351245765, -23.295132590695566 ], [ -45.979406241031725, -23.295085863537579 ], [ -45.979489390150199, -23.295052584355108 ], [ -45.979575375816523, -23.295013974995889 ], [ -45.979525941820761, -23.29493902451394 ], [ -45.979349688931357, -23.294824137454277 ], [ -45.979247907441689, -23.294799981713801 ], [ -45.97907828041545, -23.294804582355301 ], [ -45.978970929396077, -23.294805252483592 ], [ -45.978925915929025, -23.294810403169972 ], [ -45.978877550976506, -23.294816017463198 ], [ -45.978825274339506, -23.294811031319828 ], [ -45.978792333802957, -23.294796504789378 ], [ -45.978728924173147, -23.294765312149266 ], [ -45.978678207509731, -23.294754840623465 ], [ -45.978593698436178, -23.294733232878283 ], [ -45.978526938247086, -23.294704050200519 ], [ -45.978451259156031, -23.294654435312214 ], [ -45.978386736061694, -23.294613223897677 ], [ -45.978309244033603, -23.294578080807597 ], [ -45.97825610310047, -23.294575966438739 ], [ -45.978204428785411, -23.29458779898637 ], [ -45.97818062186149, -23.294609197145146 ], [ -45.978245855109108, -23.295140917495143 ], [ -45.978260082541645, -23.295382543766163 ] ] ] ] } },
{ "type": "Feature", "properties": { "fid": 26, "nome": "Pq Santo Antonio", "domicilios": 137, "remocao": 5 }, "geometry": { "type": "MultiPolygon", "coordinates": [ [ [ [ -45.957244798544714, -23.312965340743407 ], [ -45.957347127667958, -23.310788390425 ], [ -45.957322161880469, -23.309979282628376 ], [ -45.957233387089069, -23.309094862239604 ], [ -45.956537379828681, -23.308018030672638 ], [ -45.956453182009895, -23.308040679533519 ], [ -45.956596119141494, -23.309796894408478 ], [ -45.956602639076614, -23.31017226646064 ], [ -45.95656027310779, -23.31229041411747 ], [ -45.957180469081223, -23.312951567122568 ], [ -45.957244798544714, -23.312965340743407 ] ] ] ] } },
{ "type": "Feature", "properties": { "fid": 27, "nome": "Jd Real", "domicilios": 213, "remocao": 0 }, "geometry": { "type": "MultiPolygon", "coordinates": [ [ [ [ -45.930504120055822, -23.306974552949541 ], [ -45.929892456333327, -23.30612622186775 ], [ -45.929809723295534, -23.306107638818943 ], [ -45.929608028682203, -23.305810012945351 ], [ -45.929505176025671, -23.3058678439922 ], [ -45.929520445037397, -23.306083922534576 ], [ -45.928887219229431, -23.30609403350341 ], [ -45.928864758800849, -23.305833492076829 ], [ -45.928774921964838, -23.305783160985694 ], [ -45.928636945873464, -23.305739472901717 ], [ -45.928554345642894, -23.305739962137441 ], [ -45.928531621123533, -23.30544127470457 ], [ -45.92807754140469, -23.305475752899412 ], [ -45.927962244926235, -23.305724394089093 ], [ -45.927873555253584, -23.305839361496609 ], [ -45.927771716130074, -23.306043417495104 ], [ -45.927655713069782, -23.306190335996131 ], [ -45.927477406577708, -23.306286759680905 ], [ -45.927326677457984, -23.306389377967864 ], [ -45.927301656519838, -23.306751927181381 ], [ -45.927330115889163, -23.306885275078344 ], [ -45.92765650275971, -23.307296608623972 ], [ -45.928103970090504, -23.307300318125638 ], [ -45.928881179807078, -23.307206704248376 ], [ -45.929754888783826, -23.307131588013299 ], [ -45.930374131322992, -23.307089766838708 ], [ -45.93049767898215, -23.307038170297201 ], [ -45.93049767898215, -23.307038170297201 ], [ -45.930504120055822, -23.306974552949541 ] ] ] ] } },
{ "type": "Feature", "properties": { "fid": 28, "nome": "Rua Zilda Arns", "domicilios": 7, "remocao": 100 }, "geometry": { "type": "MultiPolygon", "coordinates": [ [ [ [ -45.928468239503147, -23.305159598943799 ], [ -45.928565042471476, -23.305311456041125 ], [ -45.928620267557193, -23.305402704229081 ], [ -45.928740390853214, -23.305517934139058 ], [ -45.928828277063594, -23.305564034253315 ], [ -45.929007429607111, -23.305511616719397 ], [ -45.929330982685379, -23.305351816481178 ], [ -45.928929043207795, -23.304810950570985 ], [ -45.928819418786247, -23.304663508434498 ], [ -45.928707304231011, -23.3045120635446 ], [ -45.928249939339125, -23.304756432308636 ], [ -45.928337294161345, -23.304927624929682 ], [ -45.928468239503147, -23.305159598943799 ] ] ], [ [ [ -45.928706900367246, -23.304512174179617 ], [ -45.928571932561916, -23.304329009180336 ], [ -45.928444952306812, -23.304162717654435 ], [ -45.928066474702504, -23.303641827531891 ], [ -45.927768972929016, -23.303238353965519 ], [ -45.927847655647021, -23.303713943320378 ], [ -45.927873378315148, -23.30375970820397 ], [ -45.927875519619825, -23.303791615977058 ], [ -45.927850122385493, -23.303807358162576 ], [ -45.927799199245392, -23.303844503424948 ], [ -45.927761824267762, -23.303879070550643 ], [ -45.927730468487582, -23.303916128137246 ], [ -45.927719855661138, -23.303931399830692 ], [ -45.927714081441657, -23.303952655002195 ], [ -45.927709363412703, -23.303975160085383 ], [ -45.927710643028135, -23.304001097056414 ], [ -45.927718637065453, -23.304033526575179 ], [ -45.92773052245478, -23.304054664467369 ], [ -45.927746955876337, -23.304082690475518 ], [ -45.92776705752037, -23.304104586377498 ], [ -45.927848162115872, -23.304167654305243 ], [ -45.927929801055058, -23.304227062406071 ], [ -45.927969089259932, -23.304267104413789 ], [ -45.928005132467369, -23.304304535189416 ], [ -45.928040215704755, -23.304329691495397 ], [ -45.928075462201086, -23.304360433957335 ], [ -45.928140164982338, -23.304592934671561 ], [ -45.928164345632972, -23.30464216171216 ], [ -45.928189652402089, -23.304683476156857 ], [ -45.928249939339125, -23.304756432308636 ], [ -45.928706900367246, -23.304512174179617 ] ] ] ] } },
{ "type": "Feature", "properties": { "fid": 29, "nome": "Area da Fonte", "domicilios": 74, "remocao": 0 }, "geometry": { "type": "MultiPolygon", "coordinates": [ [ [ [ -45.926689993690175, -23.301883442506504 ], [ -45.926735209293831, -23.301888865408642 ], [ -45.926775997941647, -23.301876340261554 ], [ -45.926838320112743, -23.301838487688933 ], [ -45.926902609122131, -23.301790944474501 ], [ -45.926979337046774, -23.301766196396425 ], [ -45.927006656254903, -23.301755972704662 ], [ -45.927033432312598, -23.301743307467209 ], [ -45.927046358210752, -23.301720338435729 ], [ -45.927048775995743, -23.301713771479108 ], [ -45.927048396933934, -23.301701399509657 ], [ -45.926803418489797, -23.301365130298276 ], [ -45.92665174771259, -23.301575573935555 ], [ -45.926491823241541, -23.301768029074662 ], [ -45.926643784219493, -23.301861586733565 ], [ -45.926689993690175, -23.301883442506504 ] ] ], [ [ [ -45.927072915254804, -23.300911116697939 ], [ -45.927029448289488, -23.300937391712583 ], [ -45.926900189302692, -23.300741413047383 ], [ -45.926866783360467, -23.300782727568283 ], [ -45.927147207238555, -23.301174109664725 ], [ -45.926896747416585, -23.301320997514839 ], [ -45.926952357683049, -23.301400549049784 ], [ -45.927108128944845, -23.301306597743242 ], [ -45.927290560014065, -23.301554091735909 ], [ -45.927378185403697, -23.301496477434355 ], [ -45.927454732953159, -23.301446146345519 ], [ -45.92753744914323, -23.301391760246769 ], [ -45.927365439626342, -23.30115140358334 ], [ -45.927437913074314, -23.301107691983283 ], [ -45.927383548608532, -23.301035499969732 ], [ -45.927331086064896, -23.300965833844174 ], [ -45.927276314098052, -23.300893099554685 ], [ -45.927222011982089, -23.300820989303091 ], [ -45.927035794292593, -23.300573704548157 ], [ -45.926983470815557, -23.300638415238318 ], [ -45.926931366238058, -23.300702855203376 ], [ -45.927072915254804, -23.300911116697939 ] ] ], [ [ [ -45.927809606330747, -23.300433047017513 ], [ -45.927565596910156, -23.300582080797206 ], [ -45.927533065249939, -23.300533558715596 ], [ -45.927270559571603, -23.300694828264533 ], [ -45.927526192097396, -23.301068813893696 ], [ -45.927628389942903, -23.301009875776103 ], [ -45.927788621198829, -23.301239366519628 ], [ -45.927878418114958, -23.301188535873262 ], [ -45.927967196098507, -23.301138281147843 ], [ -45.928057707831684, -23.301087046038869 ], [ -45.928136949737969, -23.301042190289653 ], [ -45.928201282787398, -23.301005773154031 ], [ -45.928205037161334, -23.300998628065269 ], [ -45.928209337208138, -23.300972027846448 ], [ -45.928207322565875, -23.30095098646196 ], [ -45.928060974654571, -23.300760399910342 ], [ -45.928001078983712, -23.300682398800916 ], [ -45.927942370471449, -23.300605942379654 ], [ -45.927886892751715, -23.300533694808184 ], [ -45.927829407003046, -23.300458832520484 ], [ -45.927809606330747, -23.300433047017513 ] ] ], [ [ [ -45.927117201697591, -23.300470467241457 ], [ -45.927221825299874, -23.30062353047985 ], [ -45.927479784528487, -23.300463634636216 ], [ -45.927719160356801, -23.300315257071244 ], [ -45.927661094565046, -23.300239637631513 ], [ -45.927602857151903, -23.300163796086625 ], [ -45.927541238124832, -23.300083548721346 ], [ -45.92748179731224, -23.300006185989172 ], [ -45.927351780852177, -23.299836978429717 ], [ -45.927336730042143, -23.299832180678376 ], [ -45.927319724653039, -23.299833545835252 ], [ -45.927308317268327, -23.299838400448468 ], [ -45.927298570139975, -23.299857064613885 ], [ -45.927215489308082, -23.300117294626435 ], [ -45.927174913069649, -23.300244391196493 ], [ -45.927272567487812, -23.300372360637496 ], [ -45.927117201697591, -23.300470467241457 ] ] ] ] } },
{ "type": "Feature", "properties": { "fid": 30, "nome": "Jd do Vale", "domicilios": 422, "remocao": 30 }, "geometry": { "type": "MultiPolygon", "coordinates": [ [ [ [ -45.972575653074394, -23.322199111429949 ], [ -45.972385744439478, -23.322268671901742 ], [ -45.972083672346656, -23.32231018325745 ], [ -45.971869247627076, -23.322355783407229 ], [ -45.971678228420217, -23.32231722692266 ], [ -45.971574181946806, -23.322310290491107 ], [ -45.971375232248668, -23.322319003647806 ], [ -45.971165414104277, -23.322338897645782 ], [ -45.970936030243152, -23.322341504433119 ], [ -45.970614063930853, -23.32232814746358 ], [ -45.970268600919091, -23.322284246132963 ], [ -45.969972829358575, -23.32221790140029 ], [ -45.969715354273262, -23.322144235890899 ], [ -45.969420948315992, -23.322001737105392 ], [ -45.969317523640406, -23.322150239006877 ], [ -45.969098803139239, -23.322000188180045 ], [ -45.968914060443048, -23.321838613144941 ], [ -45.968740864017292, -23.321689854658135 ], [ -45.968401521787058, -23.321961114368353 ], [ -45.968439565171501, -23.322004653975373 ], [ -45.968451716888666, -23.322024755007522 ], [ -45.968646952960022, -23.322224344442802 ], [ -45.96883680871214, -23.322383269673093 ], [ -45.968968834439643, -23.322466891690421 ], [ -45.969103496462957, -23.32253121841131 ], [ -45.969266880749863, -23.322570232660482 ], [ -45.96944064204267, -23.322641106062211 ], [ -45.9696493013778, -23.322686510415259 ], [ -45.969965940203508, -23.322721737505521 ], [ -45.970845319686852, -23.322751707453705 ], [ -45.971484032763904, -23.3227319528159 ], [ -45.972086836764362, -23.322695149597585 ], [ -45.972572000655475, -23.322638735191219 ], [ -45.973192056959661, -23.322508575038476 ], [ -45.973747165152957, -23.322334003060938 ], [ -45.97402776249568, -23.322247390319177 ], [ -45.974209161320871, -23.322212473956213 ], [ -45.974373244235487, -23.322205779105445 ], [ -45.974513269818544, -23.322224143050335 ], [ -45.974690578934954, -23.322252634784274 ], [ -45.974866781470098, -23.322297319830529 ], [ -45.974940852460733, -23.322331389603811 ], [ -45.975059397893567, -23.322416535828193 ], [ -45.975156748909207, -23.322487647451602 ], [ -45.975237127870756, -23.322597822268751 ], [ -45.975328052582185, -23.322707931397417 ], [ -45.97537258538096, -23.322766976028412 ], [ -45.975403500366461, -23.322930582674019 ], [ -45.975432575595207, -23.323104825566528 ], [ -45.97549193919054, -23.323750798294427 ], [ -45.975533489807603, -23.324189255469875 ], [ -45.9755506593063, -23.324374197231545 ], [ -45.975525211711833, -23.324565602135102 ], [ -45.975463422748653, -23.324677633056876 ], [ -45.975318663079463, -23.32490245471849 ], [ -45.974839121881828, -23.325499938774922 ], [ -45.974293468783273, -23.326219199142972 ], [ -45.973228712420806, -23.327651338126373 ], [ -45.973145597548118, -23.327659380329372 ], [ -45.973088491945212, -23.327651323733718 ], [ -45.9730389723507, -23.327631709796002 ], [ -45.972978097447559, -23.327599770759672 ], [ -45.972797121673175, -23.327499958961997 ], [ -45.972662442202854, -23.327437931744235 ], [ -45.972579695212787, -23.327397717033548 ], [ -45.97245944838879, -23.327342683241351 ], [ -45.972250708944713, -23.327248355523334 ], [ -45.972118906143926, -23.327186309970205 ], [ -45.971844645450901, -23.327047232804322 ], [ -45.971698590512631, -23.326984292911501 ], [ -45.971473964285011, -23.32686625381724 ], [ -45.971346418526828, -23.326796212586746 ], [ -45.971226134110296, -23.326735865642945 ], [ -45.971084680698866, -23.32666502500561 ], [ -45.970922006888344, -23.326576607726729 ], [ -45.970770850802879, -23.326489889707894 ], [ -45.970641874109305, -23.326420742147796 ], [ -45.97050805893123, -23.326345426642522 ], [ -45.970255519002713, -23.326226354909554 ], [ -45.970107342735631, -23.326153784187628 ], [ -45.970059381098181, -23.326150539550422 ], [ -45.969999174655257, -23.326177474346682 ], [ -45.969986916987985, -23.326205883071417 ], [ -45.969980553032123, -23.326253734130727 ], [ -45.970015883230985, -23.3263659613302 ], [ -45.970052351069853, -23.326436788975215 ], [ -45.97009650478752, -23.326509782522503 ], [ -45.970269891104316, -23.326621154760108 ], [ -45.970904088458489, -23.326947480384323 ], [ -45.971137007022271, -23.327070878289287 ], [ -45.971576655878806, -23.327341962597391 ], [ -45.971777062708796, -23.327477071337103 ], [ -45.971701253107632, -23.327599726842479 ], [ -45.972157532826131, -23.327850120708234 ], [ -45.972308411643525, -23.327634917456468 ], [ -45.972676270221164, -23.327855754905862 ], [ -45.972949312742358, -23.327976892991181 ], [ -45.97285382004096, -23.328122969090469 ], [ -45.973006894495967, -23.328207665737573 ], [ -45.973132612306408, -23.328025031038123 ], [ -45.973332567347583, -23.328135158894703 ], [ -45.973433145605227, -23.328145563542027 ], [ -45.973526787431304, -23.32810741316846 ], [ -45.973721591716128, -23.328022799813287 ], [ -45.973889812044938, -23.327950922155431 ], [ -45.974116384114026, -23.327868106279588 ], [ -45.974312292421338, -23.327772986039324 ], [ -45.974499350863042, -23.327654949778861 ], [ -45.974651584775252, -23.327494630751723 ], [ -45.974809441484091, -23.327316568595439 ], [ -45.974938613575056, -23.327149309594752 ], [ -45.974888139739186, -23.327064625272911 ], [ -45.975102523912867, -23.326749859461231 ], [ -45.975307358679736, -23.326440465219168 ], [ -45.975521495266591, -23.326092055201475 ], [ -45.975676423232265, -23.325775888036876 ], [ -45.975857981041713, -23.325430336661515 ], [ -45.975927464282186, -23.325229803444874 ], [ -45.97600258317361, -23.325013297889544 ], [ -45.976083441141803, -23.324794985745584 ], [ -45.976128943171908, -23.324592831036917 ], [ -45.976125759641427, -23.324288273209426 ], [ -45.976107649293155, -23.324171513208164 ], [ -45.976065521382722, -23.323890062779192 ], [ -45.976034307440706, -23.323727056637498 ], [ -45.976003093498683, -23.323678501616588 ], [ -45.975974056883508, -23.323601704936294 ], [ -45.975961474909319, -23.323480813317072 ], [ -45.975951070261971, -23.323387171491003 ], [ -45.975921590427831, -23.323361159872643 ], [ -45.975884307108203, -23.323337749416137 ], [ -45.975874769514796, -23.32325537929135 ], [ -45.9758765036227, -23.322965783273663 ], [ -45.975833150925425, -23.322719539953233 ], [ -45.975718699804688, -23.322421273396099 ], [ -45.975626792086494, -23.322239192067595 ], [ -45.975463128011292, -23.321938120196247 ], [ -45.975326115737815, -23.321818558589307 ], [ -45.975118698474617, -23.32160624268765 ], [ -45.9748897962331, -23.321439768330151 ], [ -45.974719853659842, -23.321432831898601 ], [ -45.973810486141033, -23.321670826404926 ], [ -45.973588858025991, -23.321780222501818 ], [ -45.973003086848429, -23.322053642523354 ], [ -45.972575653074394, -23.322199111429949 ] ] ] ] } },
{ "type": "Feature", "properties": { "fid": 31, "nome": "Cepinho", "domicilios": 60, "remocao": 0 }, "geometry": { "type": "MultiPolygon", "coordinates": [ [ [ [ -45.98373583588338, -23.271760182928663 ], [ -45.983791262253121, -23.271659766155029 ], [ -45.983613966586731, -23.271553395427414 ], [ -45.98348876636156, -23.271439285519868 ], [ -45.983415797499298, -23.27133596707516 ], [ -45.983318678144251, -23.271221681074287 ], [ -45.983225788052266, -23.271137018702738 ], [ -45.983027457053211, -23.27089735318518 ], [ -45.982861708044467, -23.270724196302513 ], [ -45.982687854952765, -23.270539971144142 ], [ -45.982513757728547, -23.270322390833073 ], [ -45.982380210553217, -23.270163856917303 ], [ -45.982282875566234, -23.270019921361378 ], [ -45.981931251943919, -23.270211141480758 ], [ -45.981607246015358, -23.270339181442669 ], [ -45.981551546957249, -23.27040253644439 ], [ -45.981551899942858, -23.270450715814945 ], [ -45.981649343116594, -23.270609476253469 ], [ -45.981505825725158, -23.27073268084736 ], [ -45.981493872718474, -23.270743874417587 ], [ -45.981486094105776, -23.270777279534645 ], [ -45.9815023844262, -23.270810534143905 ], [ -45.981530817837026, -23.270858537915629 ], [ -45.981801923504499, -23.27117558196602 ], [ -45.981415115737903, -23.271493034432989 ], [ -45.981419290150747, -23.271515245980005 ], [ -45.981451680901166, -23.271555812464168 ], [ -45.981560942126734, -23.271684848819675 ], [ -45.981561050745313, -23.271699673238945 ], [ -45.981549151969041, -23.271718279024437 ], [ -45.981525300099293, -23.271748078383254 ], [ -45.981509471255833, -23.271777827566829 ], [ -45.981497626771798, -23.271803845558384 ], [ -45.981509905709878, -23.271837125243991 ], [ -45.981538257893128, -23.271874010686396 ], [ -45.981558722821973, -23.271929476821619 ], [ -45.981570893166747, -23.271947932082263 ], [ -45.981575040467042, -23.271966437517829 ], [ -45.981559157300985, -23.271988774496744 ], [ -45.981463342298241, -23.272052380348875 ], [ -45.981212244843142, -23.272276326808218 ], [ -45.981073225404366, -23.272466215865744 ], [ -45.981013350856742, -23.272507359143614 ], [ -45.980888124703419, -23.272389541024648 ], [ -45.980682044074022, -23.27218698369769 ], [ -45.980629731385214, -23.27216507290424 ], [ -45.980573624206031, -23.272172836000834 ], [ -45.980470002517961, -23.272266140236361 ], [ -45.980334179901512, -23.272344820439809 ], [ -45.980270998748239, -23.272482347250758 ], [ -45.980267312646241, -23.272526845576316 ], [ -45.980295637529011, -23.272560025140887 ], [ -45.980453660977474, -23.272774002010777 ], [ -45.980461928207482, -23.272807306840168 ], [ -45.980458133661877, -23.27283698074454 ], [ -45.980426339623286, -23.272877948384057 ], [ -45.980163692318179, -23.273168678334176 ], [ -45.980140111059612, -23.273235538553052 ], [ -45.980140544937967, -23.273294836243576 ], [ -45.980148785010357, -23.273324434983223 ], [ -45.980181094489787, -23.273353883401917 ], [ -45.980217415551444, -23.273383306758785 ], [ -45.980265744214449, -23.273408948833865 ], [ -45.98087846066214, -23.273809104562005 ], [ -45.980958773682644, -23.273819721415546 ], [ -45.981022687539877, -23.273782259173643 ], [ -45.981122135512685, -23.273666743016058 ], [ -45.981663337002011, -23.273066648722629 ], [ -45.981703099485159, -23.273018218452417 ], [ -45.98171071518842, -23.272962576707119 ], [ -45.981383417171315, -23.2726421777631 ], [ -45.981157277721799, -23.272439746521464 ], [ -45.981288355390419, -23.272261025870318 ], [ -45.981356089907983, -23.272197595699097 ], [ -45.981435831797121, -23.2721303841425 ], [ -45.98150367479294, -23.272081778330023 ], [ -45.981595532582617, -23.272025609751214 ], [ -45.981699452024571, -23.271973071952601 ], [ -45.981851238020795, -23.271883171911941 ], [ -45.982019260055075, -23.271819114064677 ], [ -45.982203246472729, -23.271743837316066 ], [ -45.982384987702829, -23.27190948221708 ], [ -45.982596402249207, -23.27174508276174 ], [ -45.982820584919793, -23.271680672471351 ], [ -45.983325600371543, -23.271618208961687 ], [ -45.98373583588338, -23.271760182928663 ] ] ] ] } },
{ "type": "Feature", "properties": { "fid": 32, "nome": "Jd Conquista", "domicilios": 240, "remocao": 0 }, "geometry": { "type": "MultiPolygon", "coordinates": [ [ [ [ -45.958567646281352, -23.261084658831617 ], [ -45.957914137356433, -23.259411767245997 ], [ -45.957732919584878, -23.258859112220367 ], [ -45.957459577077969, -23.258408411444684 ], [ -45.957457070376712, -23.258057451726664 ], [ -45.957412749054996, -23.257761343062398 ], [ -45.957317559779916, -23.257434346710088 ], [ -45.957095869196351, -23.257123720239623 ], [ -45.955673085442335, -23.257654948652032 ], [ -45.955905383604346, -23.258269691038397 ], [ -45.956170335338477, -23.258728245218563 ], [ -45.956563295458579, -23.259381005224125 ], [ -45.956734064195857, -23.259652945355761 ], [ -45.956930045450228, -23.259909132731 ], [ -45.957100815630717, -23.260181072398677 ], [ -45.957237432284316, -23.260398623975849 ], [ -45.957348113349035, -23.260530539688489 ], [ -45.95761040012151, -23.260614734098468 ], [ -45.957838699868276, -23.260667937633258 ], [ -45.958211948163196, -23.260923041765388 ], [ -45.95842420293107, -23.26109333394939 ], [ -45.958567646281352, -23.261084658831617 ] ] ] ] } },
{ "type": "Feature", "properties": { "fid": 33, "nome": "Parque Imperial", "domicilios": 145, "remocao": 0 }, "geometry": { "type": "MultiPolygon", "coordinates": [ [ [ [ -46.012662491062898, -23.318010814640122 ], [ -46.014541301307773, -23.318140298498019 ], [ -46.014620201829949, -23.317459936168046 ], [ -46.014499775096098, -23.31745861748588 ], [ -46.014515200665883, -23.317395568409253 ], [ -46.014749057248046, -23.317075111650649 ], [ -46.015178670907147, -23.316503688080715 ], [ -46.015416972516533, -23.316170611743591 ], [ -46.013857285118441, -23.316025434486555 ], [ -46.013259467861275, -23.316587450632344 ], [ -46.012914094833903, -23.31688344636267 ], [ -46.012808444575448, -23.317033109049667 ], [ -46.012673958815313, -23.317275283559674 ], [ -46.012662491062898, -23.318010814640122 ] ] ] ] } },
{ "type": "Feature", "properties": { "fid": 34, "nome": "Vila Zezé", "domicilios": 74, "remocao": 0 }, "geometry": { "type": "MultiPolygon", "coordinates": [ [ [ [ -45.946356546843177, -23.2973209374044 ], [ -45.946775853069624, -23.296864377773019 ], [ -45.948076781933835, -23.297719985938578 ], [ -45.949029218363499, -23.29684236431271 ], [ -45.948544283778254, -23.296371859890822 ], [ -45.948052080432127, -23.296798701119293 ], [ -45.947376449140421, -23.296345345523758 ], [ -45.946255352207686, -23.296503194575237 ], [ -45.946069018831203, -23.297138018133914 ], [ -45.946356546843177, -23.2973209374044 ] ] ] ] } },
{ "type": "Feature", "properties": { "fid": 35, "nome": "Jardim São Luiz", "domicilios": 26, "remocao": 0 }, "geometry": { "type": "MultiPolygon", "coordinates": [ [ [ [ -46.002185848889688, -23.313345417547911 ], [ -46.001995152082621, -23.313516600176804 ], [ -46.002123413345309, -23.313654268883358 ], [ -46.002214609631018, -23.313696701208855 ], [ -46.002281778544763, -23.313716205678496 ], [ -46.002361340384113, -23.313721991824934 ], [ -46.002471501366379, -23.31371813981286 ], [ -46.002604191986421, -23.31368896384555 ], [ -46.002703905373004, -23.313655277533432 ], [ -46.002801596127121, -23.31357911325146 ], [ -46.002858425072809, -23.313507406990944 ], [ -46.002917975712222, -23.313419945944357 ], [ -46.003017785810549, -23.313247770130161 ], [ -46.00334636875705, -23.312529093039505 ], [ -46.003393297652615, -23.312424926108747 ], [ -46.003404278855044, -23.31237449628658 ], [ -46.003401128081357, -23.312333074763551 ], [ -46.003379849972063, -23.31229806422246 ], [ -46.00298727334129, -23.31190609377818 ], [ -46.002759677656215, -23.311700866029316 ], [ -46.002560566813393, -23.311506996465884 ], [ -46.002188936533258, -23.311180986780791 ], [ -46.00211065364531, -23.311194077155662 ], [ -46.002002900175604, -23.311215749140189 ], [ -46.001833917974778, -23.311252500598062 ], [ -46.001660447076091, -23.31129662466115 ], [ -46.001529998945223, -23.311321588819148 ], [ -46.001438116484564, -23.311338962383928 ], [ -46.001273687337729, -23.311832067605572 ], [ -46.001419999438255, -23.311801756509709 ], [ -46.001644476866296, -23.311742618558412 ], [ -46.001804396070149, -23.311709072683808 ], [ -46.002052711454127, -23.311647683486292 ], [ -46.002242219021177, -23.311621292115202 ], [ -46.002346675159103, -23.311614329244044 ], [ -46.002416193495513, -23.311644310237217 ], [ -46.002473413538482, -23.311700598779623 ], [ -46.00251719940114, -23.311783202148632 ], [ -46.002517655637043, -23.311844050339548 ], [ -46.002509048208339, -23.311908103970516 ], [ -46.002489168212023, -23.31198377042405 ], [ -46.002490713152731, -23.312038316708712 ], [ -46.002519433398497, -23.312081148458208 ], [ -46.002544557138208, -23.312098823437008 ], [ -46.002591160902504, -23.312102721978498 ], [ -46.002682057280396, -23.312105288019065 ], [ -46.002777686137428, -23.31213300349755 ], [ -46.002846155484384, -23.312174531724871 ], [ -46.002899991813855, -23.312233989215958 ], [ -46.002936883958768, -23.312306144989222 ], [ -46.002946451300879, -23.312370082341559 ], [ -46.002926902019269, -23.31248981131386 ], [ -46.002897475736475, -23.3126557663821 ], [ -46.00283100483297, -23.312880711243508 ], [ -46.002785714860373, -23.313052013568793 ], [ -46.002732308110467, -23.313201335514528 ], [ -46.002654751879263, -23.313311468548047 ], [ -46.002577440927361, -23.3133785845463 ], [ -46.002464132057135, -23.313417078934588 ], [ -46.002395385243339, -23.313414371140116 ], [ -46.002318087563474, -23.313407521369751 ], [ -46.002230362125829, -23.313373460160019 ], [ -46.002185848889688, -23.313345417547911 ] ] ] ] } },
{ "type": "Feature", "properties": { "fid": 36, "nome": "Jardim Boa Vista", "domicilios": 33, "remocao": 0 }, "geometry": { "type": "MultiPolygon", "coordinates": [ [ [ [ -45.969322703274408, -23.308978792346561 ], [ -45.968904124448578, -23.309059542807184 ], [ -45.968909679026901, -23.309199047383466 ], [ -45.968918280238924, -23.309288697802828 ], [ -45.968939369317724, -23.309534071986619 ], [ -45.968957776175692, -23.30972280784751 ], [ -45.969004452094353, -23.310050383263864 ], [ -45.969089619838407, -23.310359884889955 ], [ -45.969116741753858, -23.310497157764811 ], [ -45.969122349898242, -23.310644006121198 ], [ -45.969109973592246, -23.310817194774462 ], [ -45.969093152462818, -23.311004050041188 ], [ -45.969044807041854, -23.311229919275899 ], [ -45.968914615361179, -23.311604751196459 ], [ -45.96875426862875, -23.31158056232653 ], [ -45.968601175313189, -23.312087205674949 ], [ -45.969076408560312, -23.312141972313999 ], [ -45.969218046885118, -23.311779134893882 ], [ -45.969283887239186, -23.311616107300729 ], [ -45.969368570240178, -23.311388439549145 ], [ -45.969429607965083, -23.311189770009708 ], [ -45.969462491136838, -23.311024847836485 ], [ -45.969471674786298, -23.310724730026983 ], [ -45.969479711104512, -23.310423045556139 ], [ -45.969477843740073, -23.310165487233295 ], [ -45.969388664025239, -23.309929452158343 ], [ -45.969349469141932, -23.309850482613921 ], [ -45.96931150804734, -23.30962829446592 ], [ -45.969292024242385, -23.309526121395681 ], [ -45.969261623016088, -23.309249854498297 ], [ -45.969278602054395, -23.309163193432525 ], [ -45.969322703274408, -23.308978792346561 ] ] ] ] } },
{ "type": "Feature", "properties": { "fid": 37, "nome": "Cidade Nova Jacareí", "domicilios": 19, "remocao": 0 }, "geometry": { "type": "MultiPolygon", "coordinates": [ [ [ [ -46.014773609930067, -23.306053586220834 ], [ -46.014755444225017, -23.306054752957607 ], [ -46.014738466112476, -23.306062731513489 ], [ -46.014720395921884, -23.306076487488912 ], [ -46.014710064381191, -23.306099635770575 ], [ -46.014691359775412, -23.306179492618476 ], [ -46.014667803643277, -23.306368492989549 ], [ -46.01507827553533, -23.306721499326233 ], [ -46.01510399959853, -23.306743365017006 ], [ -46.015157623909808, -23.306774492434723 ], [ -46.015233365665232, -23.30680127998539 ], [ -46.015316402931539, -23.306816479546626 ], [ -46.015399880700407, -23.306814889733012 ], [ -46.015496861331705, -23.306796425932994 ], [ -46.015950304776176, -23.306674933587242 ], [ -46.015795069545682, -23.306351750675518 ], [ -46.015624656959623, -23.306423148122445 ], [ -46.015463259355023, -23.306485044602709 ], [ -46.015335742202183, -23.306521017203647 ], [ -46.015238074354926, -23.306523748026319 ], [ -46.015185645712855, -23.306500481552135 ], [ -46.015139424489256, -23.306471929090947 ], [ -46.015083829770951, -23.306405667729599 ], [ -46.015017368832446, -23.306329509726886 ], [ -46.014811749225942, -23.306102387347309 ], [ -46.014773609930067, -23.306053586220834 ] ] ] ] } },
{ "type": "Feature", "properties": { "fid": 38, "nome": "Jardim São Gabriel", "domicilios": 54, "remocao": 0 }, "geometry": { "type": "MultiPolygon", "coordinates": [ [ [ [ -46.026830141506494, -23.365162272435079 ], [ -46.028663649323036, -23.36330898101383 ], [ -46.028805814106462, -23.363176641045872 ], [ -46.029046675736367, -23.363022406765555 ], [ -46.029294945946759, -23.362834288488539 ], [ -46.029469501089977, -23.36270252174447 ], [ -46.029175042944331, -23.362427484496735 ], [ -46.028857220268044, -23.362769497277601 ], [ -46.028525298824988, -23.363051800874224 ], [ -46.028052111168527, -23.363472732192502 ], [ -46.027670197694412, -23.363682971503472 ], [ -46.027304433434573, -23.363887595879365 ], [ -46.02636693944865, -23.364778177046841 ], [ -46.026830141506494, -23.365162272435079 ] ] ] ] } },
{ "type": "Feature", "properties": { "fid": 39, "nome": "Bandeira Branca II", "domicilios": 42, "remocao": 0 }, "geometry": { "type": "MultiPolygon", "coordinates": [ [ [ [ -45.999801450159659, -23.334045085833804 ], [ -45.999886068917142, -23.333994382966072 ], [ -45.999974622672333, -23.333188853632723 ], [ -46.000147613686806, -23.333076801030185 ], [ -46.000248401443422, -23.333222514545504 ], [ -46.000377608230309, -23.333408176654764 ], [ -46.000709048423928, -23.333290390199103 ], [ -46.000677701970176, -23.333200887736599 ], [ -46.000621744516501, -23.333067871422355 ], [ -46.000325762734747, -23.332629510340006 ], [ -46.000230326371863, -23.332515630761332 ], [ -45.999142112883789, -23.3333027537617 ], [ -45.999801450159659, -23.334045085833804 ] ] ] ] } },
{ "type": "Feature", "properties": { "fid": 40, "nome": "Parque dos Principes", "domicilios": 121, "remocao": 0 }, "geometry": { "type": "MultiPolygon", "coordinates": [ [ [ [ -45.941528777551774, -23.2998470256519 ], [ -45.941364547811503, -23.299914109466311 ], [ -45.941110594906135, -23.299982780795713 ], [ -45.940715784268065, -23.300050198463655 ], [ -45.940229782451688, -23.300071998394348 ], [ -45.939798169392837, -23.300074848060611 ], [ -45.939317618024283, -23.300064088166895 ], [ -45.939211540888131, -23.30032491824846 ], [ -45.939686753023452, -23.300383972351778 ], [ -45.940180824909866, -23.300378912437782 ], [ -45.94067244799276, -23.300348685533962 ], [ -45.941145727755774, -23.300294436240506 ], [ -45.941643249505553, -23.300134073618757 ], [ -45.941528777551774, -23.2998470256519 ] ] ], [ [ [ -45.945381706577891, -23.298406676534885 ], [ -45.945262945050537, -23.298960305612226 ], [ -45.945271333107016, -23.299022156140893 ], [ -45.945301235010618, -23.299074434441213 ], [ -45.94538680689098, -23.299128475466851 ], [ -45.945570244672297, -23.299208155624122 ], [ -45.945760631081491, -23.299306678728136 ], [ -45.945631963258663, -23.299422863492644 ], [ -45.944756329733707, -23.300244396504901 ], [ -45.944532611076042, -23.30009046692296 ], [ -45.944358715644718, -23.300236299891882 ], [ -45.943974960029919, -23.299938547599329 ], [ -45.943559195761921, -23.300255801282731 ], [ -45.943913553051097, -23.300572616631737 ], [ -45.944281482784781, -23.300880956021313 ], [ -45.944705865236642, -23.301140692523379 ], [ -45.945147160876694, -23.301382489975257 ], [ -45.945474501380737, -23.300929373127765 ], [ -45.945791513389068, -23.300461629537562 ], [ -45.946088627372141, -23.300071644026382 ], [ -45.946551911586319, -23.299407870634582 ], [ -45.947095321253961, -23.298510696142497 ], [ -45.946128574944929, -23.298171354601287 ], [ -45.945921031207639, -23.298537718137823 ], [ -45.945381706577891, -23.298406676534885 ] ] ] ] } }
]
}
